******** Week 437 almanac for PRN-01 ********
ID:                         01
Health:                     000
Eccentricity:               0.7122039795E-002
Time of Applicability(s):  61440.0000
Orbital Inclination(rad):   0.9908638000
Rate of Right Ascen(r/s):  -0.7934431778E-008
SQRT(A)  (m 1/2):           5153.553711
Right Ascen at Week(rad):  -0.1788489819E+001
Argument of Perigee(rad):  -1.786247253
Mean Anom(rad):            -0.3045806885E+001
Af0(s):                     0.1773834229E-003
Af1(s/s):                   0.3637978807E-011
week:                        437

******** Week 437 almanac for PRN-02 ********
ID:                         02
Health:                     000
Eccentricity:               0.8734226227E-002
Time of Applicability(s):  61440.0000
Orbital Inclination(rad):   0.9443836212
Rate of Right Ascen(r/s):  -0.7828930393E-008
SQRT(A)  (m 1/2):           5153.617676
Right Ascen at Week(rad):   0.2338349938E+001
Argument of Perigee(rad):   2.437398791
Mean Anom(rad):            -0.2275529742E+001
Af0(s):                     0.1640319824E-003
Af1(s/s):                   0.3637978807E-011
week:                        437

******** Week 437 almanac for PRN-03 ********
ID:                         03
Health:                     000
Eccentricity:               0.1030111313E-001
Time of Applicability(s):  61440.0000
Orbital Inclination(rad):   0.9254665375
Rate of Right Ascen(r/s):  -0.8232746040E-008
SQRT(A)  (m 1/2):           5153.586914
Right Ascen at Week(rad):   0.1195584059E+001
Argument of Perigee(rad):   0.803774834
Mean Anom(rad):            -0.2849389195E+001
Af0(s):                     0.1688003540E-003
Af1(s/s):                   0.3637978807E-011
week:                        437

******** Week 437 almanac for PRN-04 ********
ID:                         04
Health:                     000
Eccentricity:               0.8118629456E-002
Time of Applicability(s):  61440.0000
Orbital Inclination(rad):   0.9437484741
Rate of Right Ascen(r/s):  -0.7810740499E-008
SQRT(A)  (m 1/2):           5153.630859
Right Ascen at Week(rad):   0.2357375264E+001
Argument of Perigee(rad):   0.343769789
Mean Anom(rad):             0.3451794386E+000
Af0(s):                    -0.4768371582E-004
Af1(s/s):                  -0.7275957614E-011
week:                        437

******** Week 437 almanac for PRN-05 ********
ID:                         05
Health:                     000
Eccentricity:               0.8488178253E-002
Time of Applicability(s):  61440.0000
Orbital Inclination(rad):   0.9418544769
Rate of Right Ascen(r/s):  -0.7785274647E-008
SQRT(A)  (m 1/2):           5153.618652
Right Ascen at Week(rad):   0.1619424820E+000
Argument of Perigee(rad):   1.220292568
Mean Anom(rad):            -0.1898611784E+000
Af0(s):                     0.6341934204E-003
Af1(s/s):                   0.1818989404E-010
week:                        437

******** Week 437 almanac for PRN-06 ********
ID:                         06
Health:                     000
Eccentricity:               0.5430221558E-002
Time of Applicability(s):  61440.0000
Orbital Inclination(rad):   0.9330101013
Rate of Right Ascen(r/s):  -0.8141796570E-008
SQRT(A)  (m 1/2):           5153.540527
Right Ascen at Week(rad):   0.1258904219E+001
Argument of Perigee(rad):  -1.660683274
Mean Anom(rad):             0.1304625511E+001
Af0(s):                     0.1630783081E-003
Af1(s/s):                  -0.1455191523E-010
week:                        437

******** Week 437 almanac for PRN-08 ********
ID:                         08
Health:                     000
Eccentricity:               0.1013755798E-001
Time of Applicability(s):  61440.0000
Orbital Inclination(rad):   0.9815826416
Rate of Right Ascen(r/s):  -0.7628841558E-008
SQRT(A)  (m 1/2):           5153.615723
Right Ascen at Week(rad):  -0.7451891899E+000
Argument of Perigee(rad):   2.855863690
Mean Anom(rad):             0.1337562323E+001
Af0(s):                    -0.1363754272E-003
Af1(s/s):                   0.0000000000E+000
week:                        437

******** Week 437 almanac for PRN-09 ********
ID:                         09
Health:                     000
Eccentricity:               0.1943302155E-001
Time of Applicability(s):  61440.0000
Orbital Inclination(rad):   0.9693641663
Rate of Right Ascen(r/s):  -0.7792550605E-008
SQRT(A)  (m 1/2):           5153.643555
Right Ascen at Week(rad):  -0.8327392340E+000
Argument of Perigee(rad):   1.381798029
Mean Anom(rad):             0.1001808524E+001
Af0(s):                     0.1039505005E-003
Af1(s/s):                   0.0000000000E+000
week:                        437

******** Week 437 almanac for PRN-10 ********
ID:                         10
Health:                     000
Eccentricity:               0.7910728455E-002
Time of Applicability(s):  61440.0000
Orbital Inclination(rad):   0.9661769867
Rate of Right Ascen(r/s):  -0.7690687198E-008
SQRT(A)  (m 1/2):           5153.713379
Right Ascen at Week(rad):  -0.2865234971E+001
Argument of Perigee(rad):   0.509069324
Mean Anom(rad):            -0.1629089475E+001
Af0(s):                    -0.1983642578E-003
Af1(s/s):                  -0.1455191523E-010
week:                        437

******** Week 437 almanac for PRN-11 ********
ID:                         11
Health:                     000
Eccentricity:               0.7789134979E-002
Time of Applicability(s):  61440.0000
Orbital Inclination(rad):   0.8918437958
Rate of Right Ascen(r/s):  -0.8389179129E-008
SQRT(A)  (m 1/2):           5153.663574
Right Ascen at Week(rad):   0.2163876891E+001
Argument of Perigee(rad):   0.568329453
Mean Anom(rad):             0.1771278977E+001
Af0(s):                     0.2670288086E-004
Af1(s/s):                   0.0000000000E+000
week:                        437

******** Week 437 almanac for PRN-12 ********
ID:                         12
Health:                     000
Eccentricity:               0.3193855286E-002
Time of Applicability(s):  61440.0000
Orbital Inclination(rad):   0.9633007050
Rate of Right Ascen(r/s):  -0.7570633898E-008
SQRT(A)  (m 1/2):           5153.653320
Right Ascen at Week(rad):   0.2519923449E+000
Argument of Perigee(rad):  -1.081716776
Mean Anom(rad):             0.2311822534E+001
Af0(s):                    -0.3538131714E-003
Af1(s/s):                   0.0000000000E+000
week:                        437

******** Week 437 almanac for PRN-13 ********
ID:                         13
Health:                     000
Eccentricity:               0.3331661224E-002
Time of Applicability(s):  61440.0000
Orbital Inclination(rad):   0.9950160980
Rate of Right Ascen(r/s):  -0.7901689969E-008
SQRT(A)  (m 1/2):           5153.653320
Right Ascen at Week(rad):  -0.1800643682E+001
Argument of Perigee(rad):   1.395225883
Mean Anom(rad):            -0.1874547362E+001
Af0(s):                     0.2326965332E-003
Af1(s/s):                   0.3637978807E-011
week:                        437

******** Week 437 almanac for PRN-14 ********
ID:                         14
Health:                     000
Eccentricity:               0.3745555878E-002
Time of Applicability(s):  61440.0000
Orbital Inclination(rad):   0.9888572693
Rate of Right Ascen(r/s):  -0.7956259651E-008
SQRT(A)  (m 1/2):           5153.602539
Right Ascen at Week(rad):  -0.1817130208E+001
Argument of Perigee(rad):  -2.111199141
Mean Anom(rad):            -0.2230376244E+001
Af0(s):                    -0.3080368042E-003
Af1(s/s):                   0.3637978807E-011
week:                        437

******** Week 437 almanac for PRN-15 ********
ID:                         15
Health:                     000
Eccentricity:               0.9355545044E-003
Time of Applicability(s):  61440.0000
Orbital Inclination(rad):   0.9573974609
Rate of Right Ascen(r/s):  -0.8276401786E-008
SQRT(A)  (m 1/2):           5153.548340
Right Ascen at Week(rad):  -0.1853810549E+001
Argument of Perigee(rad):  -1.862765431
Mean Anom(rad):            -0.7016786337E+000
Af0(s):                    -0.7057189941E-004
Af1(s/s):                   0.0000000000E+000
week:                        437

******** Week 437 almanac for PRN-16 ********
ID:                         16
Health:                     000
Eccentricity:               0.4224777222E-002
Time of Applicability(s):  61440.0000
Orbital Inclination(rad):   0.9650802612
Rate of Right Ascen(r/s):  -0.7526978152E-008
SQRT(A)  (m 1/2):           5153.754395
Right Ascen at Week(rad):   0.2680901289E+000
Argument of Perigee(rad):  -0.566109300
Mean Anom(rad):            -0.3304133415E+000
Af0(s):                     0.1316070557E-003
Af1(s/s):                   0.0000000000E+000
week:                        437

******** Week 437 almanac for PRN-17 ********
ID:                         17
Health:                     000
Eccentricity:               0.3151893616E-002
Time of Applicability(s):  61440.0000
Orbital Inclination(rad):   0.9591598511
Rate of Right Ascen(r/s):  -0.7858034223E-008
SQRT(A)  (m 1/2):           5153.640625
Right Ascen at Week(rad):   0.1308390498E+001
Argument of Perigee(rad):  -2.952868462
Mean Anom(rad):            -0.1346309662E+001
Af0(s):                     0.4482269287E-004
Af1(s/s):                   0.0000000000E+000
week:                        437

